contact_id,address,city,county,state,zip
138b20d9-7c9b-45a5-9f1a-4f7ab86ce265,6649 N Blue Gum St,New Orleans,Orleans,LA,70116
7413d3fa-19ad-4d03-b423-17263d2f70c9,4 B Blue Ridge Blvd,Brighton,Livingston,MI,48116
700f1122-89e1-4f6a-aa45-eeb229a53997,8 W Cerritos Ave #54,Bridgeport,Gloucester,NJ,8014
a9e76ce5-8f1b-40dc-a2d9-435d29390185,639 Main St,Anchorage,Anchorage,AK,99501
f9334eb4-a51f-4224-b9c1-33b7a05be29b,34 Center St,Hamilton,Butler,OH,45011
dbc7311d-98c5-4270-b0a0-e2d47391073b,3 Mcauley Dr,Ashland,Ashland,OH,44805
bec07258-ff08-40ad-8b5c-18a0fb42eef4,7 Eads St,Chicago,Cook,IL,60632
4678fc5f-7d94-4fea-a919-e8e9ff097f83,7 W Jackson Blvd,San Jose,Santa Clara,CA,95111
281f6d4a-557f-4b57-9bf4-a9809d44ec95,5 Boston Ave #88,Sioux Falls,Minnehaha,SD,57105
86e34783-dbb1-4119-a30e-0e709d3a70bb,228 Runamuck Pl #2808,Baltimore,Baltimore City,MD,21224
fb32a0a2-e3bb-473a-a785-5c04cdde93fb,2371 Jerrold Ave,Kulpsville,Montgomery,PA,19443
5e05e1de-c7b2-447f-b7f7-c40a1c93f59d,37275 St  Rt 17m M,Middle Island,Suffolk,NY,11953
dd80991d-f862-4779-b8f1-3f451f6df02c,25 E 75th St #69,Los Angeles,Los Angeles,CA,90034
babf40e9-bff0-4ba5-82ec-769ba70f1956,98 Connecticut Ave Nw,Chagrin Falls,Geauga,OH,44023
2725a407-de99-446e-afed-5f5574db418e,56 E Morehead St,Laredo,Webb,TX,78045
f54685d3-c7fa-40a6-87b9-30b97fb27992,73 State Road 434 E,Phoenix,Maricopa,AZ,85013
3b48f481-a62a-4108-8789-345685e2c67e,69734 E Carrillo St,Mc Minnville,Warren,TN,37110
7d923c7a-e76c-49ba-a679-a58432e35c3b,322 New Horizon Blvd,Milwaukee,Milwaukee,WI,53207
3fe4e9dc-d356-48be-b921-93eedea91175,1 State Route 27,Taylor,Wayne,MI,48180
bcda638c-c8aa-415b-91a6-fed937b9d4a1,394 Manchester Blvd,Rockford,Winnebago,IL,61109
a33b256a-00c5-4ce8-9be3-d7664f655928,6 S 33rd St,Aston,Delaware,PA,19014
6a1dff44-a0aa-429f-b973-2c679536e4a1,6 Greenleaf Ave,San Jose,Santa Clara,CA,95111
d88160a5-b5fb-4b00-b5f9-800ca69163c6,618 W Yakima Ave,Irving,Dallas,TX,75062
6ad19887-0fa5-4538-a00e-5e04c1a7cc03,74 S Westgate St,Albany,Albany,NY,12204
4efb1625-accb-4966-99bf-3b5e5018d481,3273 State St,Middlesex,Middlesex,NJ,8846
bae1522a-8c4a-427b-b825-5d547f761624,1 Central Ave,Stevens Point,Portage,WI,54481
b1ad9ab5-b55a-471f-9d8f-9bd522f5bdc7,86 Nw 66th St #8673,Shawnee,Johnson,KS,66218
c6f3e7e7-2be5-4fca-b841-fffe4e566ef7,2 Cedar Ave #84,Easton,Talbot,MD,21601
29d9f90e-6499-434c-8e16-d7fee57752e0,90991 Thorburn Ave,New York,New York,NY,10011
63728146-1de8-4e07-b5ae-5372673a67bb,386 9th Ave N,Conroe,Montgomery,TX,77301
b31d4f4b-6b9a-4c7d-ac17-0c0aa74aaaf2,74874 Atlantic Ave,Columbus,Franklin,OH,43215
411da556-f471-4ce4-8a9e-0cc7809777ca,366 South Dr,Las Cruces,Dona Ana,NM,88011
dee52f02-0197-4584-bce2-8c22ff9192bb,45 E Liberty St,Ridgefield Park,Bergen,NJ,7660
960db418-4122-4629-b95c-3e00808294cc,4 Ralph Ct,Dunellen,Middlesex,NJ,8812
addbd8f1-ffd6-43e5-8888-2e15a0326f9c,2742 Distribution Way,New York,New York,NY,10025
975c0f51-8669-44d9-a99e-ec786b00754e,426 Wolf St,Metairie,Jefferson,LA,70002
8a156e48-5c71-478b-b5ce-4b336afb7e7e,128 Bransten Rd,New York,New York,NY,10011
142a7c26-47c5-4d44-96d9-93b6fbf8095a,17 Morena Blvd,Camarillo,Ventura,CA,93012
21012fa9-f7ae-4740-9929-5e78e4c03f41,775 W 17th St,San Antonio,Bexar,TX,78204
021b2e26-cb43-4fc8-b734-9f1fd345d2a0,6980 Dorsett Rd,Abilene,Dickinson,KS,67410
acea702f-6a01-431b-a743-b5bb955fc090,2881 Lewis Rd,Prineville,Crook,OR,97754
a6197e9b-4220-4b6d-b1b2-1b9582fb13c5,7219 Woodfield Rd,Overland Park,Johnson,KS,66204
0db7c1b4-26a5-489a-b91b-b2b064953912,1048 Main St,Fairbanks,Fairbanks North Star,AK,99708
1830132f-2e43-4f28-a0d4-7f089485e7d5,678 3rd Ave,Miami,Miami-Dade,FL,33196
473eaedc-3da8-4c9f-950d-9c6d448af77d,20 S Babcock St,Fairbanks,Fairbanks North Star,AK,99712
f485bd06-1c06-4ebe-87e9-1b7730d45d86,2 Lighthouse Ave,Hopkins,Hennepin,MN,55343
22f4ed13-a271-4cb8-b1e4-dc4c921eed7e,38938 Park Blvd,Boston,Suffolk,MA,2128
e4300b5f-bc3b-4314-bae7-5bff8f3b6bce,5 Tomahawk Dr,Los Angeles,Los Angeles,CA,90006
faebf06a-9fca-4eae-9c75-74bed8f0072e,762 S Main St,Madison,Dane,WI,53711
658b12b3-e456-48e4-b2a1-f72fb3243ab1,209 Decker Dr,Philadelphia,Philadelphia,PA,19132
c1eea02c-def2-4292-9b5b-2436ce7a1be7,4486 W O St #1,New York,New York,NY,10003
d45c3e5a-9bab-40da-a222-3d65c1bc4705,39 S 7th St,Tullahoma,Coffee,TN,37388
c25221a0-e53c-4ad0-8223-f38144d947ca,98839 Hawthorne Blvd #6101,Columbia,Richland,SC,29201
44b62ff7-1946-432c-938e-3018b037ffcd,71 San Mateo Ave,Wayne,Delaware,PA,19087
70c2e6f3-50c2-4619-ad43-d12f16ca448a,76 Brooks St #9,Flemington,Hunterdon,NJ,8822
16f1acd8-9685-4d5c-a8ef-6f08a776f4cb,4545 Courthouse Rd,Westbury,Nassau,NY,11590
3ad7deb4-9f71-49b4-8cc8-3575f2e92ffa,14288 Foster Ave #4121,Jenkintown,Montgomery,PA,19046
40479913-7e03-4e74-bdf9-0690e1b9fbfd,4 Otis St,Van Nuys,Los Angeles,CA,91405
52e143da-6902-4022-bebb-5780155e3091,65895 S 16th St,Providence,Providence,RI,2909
526ea4c6-3d96-4dd9-881d-a4a921896ec6,14302 Pennsylvania Ave,Huntingdon Valley,Montgomery,PA,19006
04a14790-1363-4f8c-a5d0-aac0bbec47aa,201 Hawk Ct,Providence,Providence,RI,2904
0ada82ea-3312-4835-8308-85e39e9bea5f,53075 Sw 152nd Ter #615,Monroe Township,Middlesex,NJ,8831
0ead224e-5e34-487b-9a90-5196c09b14e4,59 N Groesbeck Hwy,Austin,Travis,TX,78731
71828e58-9f04-45b4-924c-8f6295d1d505,2664 Lewis Rd,Littleton,Douglas,CO,80126
6cc456e4-8bbf-428a-8278-569a2e611c2d,59 Shady Ln #53,Milwaukee,Milwaukee,WI,53214
a70ef5a9-dc4f-4460-ae21-c81517d35cdf,3305 Nabell Ave #679,New York,New York,NY,10009
ac9c2afc-a744-4cc5-a718-df270d094d98,18 Fountain St,Anchorage,Anchorage,AK,99515
dc3c62a8-82a0-45eb-bb78-969ba51c6c3c,7 W 32nd St,Erie,Erie,PA,16502
a87e1812-0e0e-46ad-9ea1-c64eb2863952,2853 S Central Expy,Glen Burnie,Anne Arundel,MD,21061
67cfecdd-1ed6-41d5-8dd8-4888d58dc518,74 W College St,Boise,Ada,ID,83707
f1e64fac-38d5-4f64-be6e-41f58f0a6a29,701 S Harrison Rd,San Francisco,San Francisco,CA,94104
49d19c22-33b2-4270-bfbf-ddc2c7f2705f,1088 Pinehurst St,Chapel Hill,Orange,NC,27514
2003909e-2918-45b4-b6ed-860e2ebb0196,30 W 80th St #1995,San Carlos,San Mateo,CA,94070
d9361f06-3ec5-4bfa-8ce4-233d2acc9599,20932 Hedley St,Concord,Contra Costa,CA,94520
6a1a2726-af3d-46a9-b6e6-bf59c825759d,2737 Pistorio Rd #9230,London,Madison,OH,43140
5198446b-ad85-4ac3-aa5a-6f93edb3880b,74989 Brandon St,Wellsville,Allegany,NY,14895
22433c7e-ea71-496f-a3d8-6d099f18d891,6 Kains Ave,Baltimore,Baltimore City,MD,21215
27190d47-a0d7-4f0e-967a-83a253ec7688,47565 W Grand Ave,Newark,Essex,NJ,7105
fa85b87f-944d-4d5c-b45f-d9d181d80519,4284 Dorigo Ln,Chicago,Cook,IL,60647
0e77ea55-76ae-4f18-83dd-dc7451a05486,6794 Lake Dr E,Newark,Essex,NJ,7104
e59471c4-05e5-49aa-a5ee-f7d26fe6700b,31 Douglas Blvd #950,Clovis,Curry,NM,88101
f315649b-1359-42f1-a1a7-f8aeae9fcd55,44 W 4th St,Staten Island,Richmond,NY,10309
559bbe2e-b286-42eb-af47-ae134488201f,11279 Loytan St,Jacksonville,Duval,FL,32254
28462778-0f2b-4858-a082-09c2bf292c75,69 Marquette Ave,Hayward,Alameda,CA,94545
0f127f77-dde0-4390-b17a-c457f1dc7996,70 W Main St,Beachwood,Cuyahoga,OH,44122
17639b29-37e3-4bb5-86ed-5c9e85d676a0,461 Prospect Pl #316,Euless,Tarrant,TX,76040
5d41788e-57f3-43e2-b263-67e7973b5d56,47154 Whipple Ave Nw,Gardena,Los Angeles,CA,90247
42d8dfa8-59a4-4062-9a75-622b990aaf1b,37 Alabama Ave,Evanston,Cook,IL,60201
a756436e-08b7-45ec-a6a4-764821da9a41,3777 E Richmond St #900,Akron,Summit,OH,44302
701add60-3379-4cd0-bc20-35abe78b78ba,3 Fort Worth Ave,Philadelphia,Philadelphia,PA,19106
3c58dbea-7a36-4095-a476-23179c621deb,4800 Black Horse Pike,Burlingame,San Mateo,CA,94010
f9ea9f1b-7d55-465a-8250-eb128133fd76,83649 W Belmont Ave,San Gabriel,Los Angeles,CA,91776
10874525-6d2f-47d5-bffc-154b46d1e09a,840 15th Ave,Waco,McLennan,TX,76708
0b9f4cca-483c-4daa-8774-0d4f4cddd3f6,1747 Calle Amanecer #2,Anchorage,Anchorage,AK,99501
4ab77c75-e0b1-42b3-9ff6-1c445d9ed456,99385 Charity St #840,San Jose,Santa Clara,CA,95110
e878cbd2-c4ef-4212-bf4a-48e688788f2f,68556 Central Hwy,San Leandro,Alameda,CA,94577
c01e0c6d-6a23-4311-b2b4-93b9e97dab9e,55 Riverside Ave,Indianapolis,Marion,IN,46202
6a43da27-610f-4801-b3f1-08007abe61be,7140 University Ave,Rock Springs,Sweetwater,WY,82901
8de13f55-d60c-4ea3-b07d-26cef449ba8e,64 5th Ave #1153,Mc Lean,Fairfax,VA,22102
ab7d0646-2cf7-4492-8d43-7ea8ca2597cc,3 Secor Rd,New Orleans,Orleans,LA,70112
eaafa4c8-7625-4a74-ada0-7662fd42d508,4 Webbs Chapel Rd,Boulder,Boulder,CO,80303
4be1596c-a67d-4bab-b2c1-7053cf1af48e,524 Louisiana Ave Nw,San Leandro,Alameda,CA,94577
bfaebeb7-5e46-441d-93d7-032841c1650b,185 Blackstone Bldge,Honolulu,Honolulu,HI,96817
740fcd69-8f14-439f-a54f-ed08fe9ce1ac,170 Wyoming Ave,Burnsville,Dakota,MN,55337
f9efd704-9501-4567-8f14-ad7a34de3148,4 10th St W,High Point,Guilford,NC,27263
351a42dc-c4e3-4ac6-a621-9e1d2e1f41d2,7 W Pinhook Rd,Lynbrook,Nassau,NY,11563
c0eed69d-d1cb-436c-9c43-cbbef819b897,1 Commerce Way,Portland,Washington,OR,97224
7bb5ed90-bcf3-4565-bb87-a7e2d32680ec,64 Lakeview Ave,Beloit,Rock,WI,53511
08e57411-7e3c-4d43-9353-d590f269cd24,3 Aspen St,Worcester,Worcester,MA,1602
9052300e-7d9f-4386-a876-3468af988e35,32860 Sierra Rd,Miami,Miami-Dade,FL,33133
d8e0b84c-0504-4d2e-b586-1095bba2c3a1,555 Main St,Erie,Erie,PA,16502
13d33415-ed73-4f10-832a-766c2f478ba1,2 Se 3rd Ave,Mesquite,Dallas,TX,75149
c22d3bad-4beb-414c-b932-167a10e47226,2239 Shawnee Mission Pky,Tullahoma,Coffee,TN,37388
e2eb3731-0c42-4188-aeb4-4f6f0f84e64c,2726 Charcot Ave,Paterson,Passaic,NJ,7501
85763026-0d83-4574-b841-08780adb0331,5161 Dorsett Rd,Homestead,Miami-Dade,FL,33030
5acef2d8-35a4-4855-be05-d426e2922e51,55892 Jacksonville Rd,Owings Mills,Baltimore,MD,21117
edb8e29d-4cf4-4007-8dde-347998683e77,5 N Cleveland Massillon Rd,Thousand Oaks,Ventura,CA,91362
cef4e500-bde0-4f48-9043-04125e2994ba,7 Benton Dr,Honolulu,Honolulu,HI,96819
34b9ff27-35d0-4a1b-9f43-786615c825d1,9390 S Howell Ave,Albany,Dougherty,GA,31701
189587f1-54e9-4a82-90a8-9378a01d440f,8 County Center Dr #647,Boston,Suffolk,MA,2210
07a54786-272b-4475-9edc-2e04520c95c5,4646 Kaahumanu St,Hackensack,Bergen,NJ,7601
aa0bf607-abfe-429a-b6f3-5d50bcccf946,2 Monroe St,San Mateo,San Mateo,CA,94403
c030d983-48b3-4b4a-b819-5893c682dfbe,52777 Leaders Heights Rd,Ontario,San Bernardino,CA,91761
c42b429f-8317-49e4-ab59-912301c78450,72868 Blackington Ave,Oakland,Alameda,CA,94606
aa0300d7-94b7-457c-af4b-953bd8c4ed68,9 Norristown Rd,Troy,Rensselaer,NY,12180
2a136dfb-6dea-4e08-8555-8b70fe23891d,83 County Road 437 #8581,Clarks Summit,Lackawanna,PA,18411
508bfbfa-06f3-4770-8673-d6bab2fbede3,1 N Harlem Ave #9,Orange,Essex,NJ,7050
32e0c8c2-4320-4b76-bd55-54f9f6cf34ab,90131 J St,Pittstown,Hunterdon,NJ,8867
47273fb0-b48a-4845-9e90-5f0425c25b4d,8597 W National Ave,Cocoa,Brevard,FL,32922
ef0ea390-7d19-4696-88ca-ef08bc4c33db,6 Gilson St,Bronx,Bronx,NY,10468
0f670f13-9220-43a7-8b4a-2e29e962a567,65 W Maple Ave,Pearl City,Honolulu,HI,96782
9f0b15ef-3179-48a2-9433-2b765ca56c53,866 34th Ave,Denver,Denver,CO,80231
3621fc32-4409-4276-9917-75250a604b96,798 Lund Farm Way,Rockaway,Morris,NJ,7866
2c6489db-848a-47d7-baef-2c57dbcda603,9387 Charcot Ave,Absecon,Atlantic,NJ,8201
b65eafb4-b2ec-4cd5-96e2-95ae5103c8c1,30553 Washington Rd,Plainfield,Union,NJ,7062
9c3a0fa6-8e05-4924-a6f9-010fe5281c0b,481 W Lemon St,Middleboro,Plymouth,MA,2346
9fc83bd7-5a5d-4631-bb3a-2418cac0ca7a,4 Warehouse Point Rd #7,Chicago,Cook,IL,60638
9685b050-cb53-43d0-89f3-653178f134d3,4940 Pulaski Park Dr,Portland,Multnomah,OR,97202
bcfaed87-5f3a-452b-8d33-b071551239b7,627 Walford Ave,Dallas,Dallas,TX,75227
49acd48c-fc12-48b6-9d9c-327e37559c07,137 Pioneer Way,Chicago,Cook,IL,60604
ee827b5e-a52f-4240-8a66-59e09048f570,61 13 Stoneridge #835,Findlay,Hancock,OH,45840
c70f6ec2-0912-4440-b986-57f54aeffd68,2409 Alabama Rd,Riverside,Riverside,CA,92501
b9180cd8-7695-4a7a-b967-6ce091c1d838,8927 Vandever Ave,Waco,McLennan,TX,76707
526fab8d-dee8-4666-824f-78cdfe6047eb,134 Lewis Rd,Nashville,Davidson,TN,37211
ae47d76b-f83e-466e-9e69-6b53181a22b4,9 N College Ave #3,Milwaukee,Milwaukee,WI,53216
a145c743-8d61-4821-869b-dcb6f7152c63,60480 Old Us Highway 51,Preston,Caroline,MD,21655
af717e23-00c6-4ec9-86d7-deceec3e1f3a,4 Bloomfield Ave,Irving,Dallas,TX,75061
b1f2b0b1-e939-4fb5-aa4e-5f981e1a19bb,429 Tiger Ln,Beverly Hills,Los Angeles,CA,90212
df33c7a1-0455-441f-8982-6837c8a8adc7,54169 N Main St,Massapequa,Nassau,NY,11758
c26846c6-dc8c-4917-9c5f-f318fe156b38,92 Main St,Atlantic City,Atlantic,NJ,8401
a542a2e7-cb12-4408-b0fd-bbaa27e799fe,72 Mannix Dr,Cincinnati,Hamilton,OH,45203
81b071c3-f09f-4efa-a3c8-d60ea8096ed7,12270 Caton Center Dr,Eugene,Lane,OR,97401
732d568a-ee6a-43dc-ab11-5a6da1d0c56c,749 W 18th St #45,Smithfield,Johnston,NC,27577
ea04d340-f714-4c18-afe7-177c3c197798,8 Industry Ln,New York,New York,NY,10002
96bc2ede-3eb2-4e24-8c91-ab3a7fc9c902,1 Huntwood Ave,Phoenix,Maricopa,AZ,85017
79772787-4ac6-44d3-93b7-1df092ae607d,55262 N French Rd,Indianapolis,Marion,IN,46240
f4bc5c5e-1461-493e-a689-aa65e7f84fc9,422 E 21st St,Syracuse,Onondaga,NY,13214
9ae0aa49-132e-4528-82e8-c61540bab392,501 N 19th Ave,Cherry Hill,Camden,NJ,8002
3f5c662f-b494-414b-a015-62cea9ec6d1d,455 N Main Ave,Garden City,Nassau,NY,11530
9f6e0e69-30ab-4f41-90ee-7bb5ba6ed39d,1844 Southern Blvd,Little Rock,Pulaski,AR,72202
dd4f1f45-fd66-44ff-9771-9cdde016af06,2023 Greg St,Saint Paul,Ramsey,MN,55101
eae0f6ed-2ccd-4b7c-8351-5c6bbec5ac65,63381 Jenks Ave,Philadelphia,Philadelphia,PA,19134
db0774a7-9374-4f9a-938e-a23317459eeb,6651 Municipal Rd,Houma,Terrebonne,LA,70360
e3072887-afd5-4f1c-94bf-1a4a48069046,81 Norris Ave #525,Ronkonkoma,Suffolk,NY,11779
415018f0-92ad-42f7-a867-820a83e53a50,6916 W Main St,Sacramento,Sacramento,CA,95827
6751673d-e73f-4efa-8f69-5592e1e7dd49,9635 S Main St,Boise,Ada,ID,83704
80e19847-76eb-4e7e-bd17-a9d2de815736,17 Us Highway 111,Round Rock,Williamson,TX,78664
b906e3e0-fa2d-4dd8-b9be-2c230705fe59,992 Civic Center Dr,Philadelphia,Philadelphia,PA,19123
38a5a789-fee4-41ff-a61d-5e03be19058a,303 N Radcliffe St,Hilo,Hawaii,HI,96720
02c6a7bf-6bb7-404a-8a3f-cf4245b78d9e,73 Saint Ann St #86,Reno,Washoe,NV,89502
c6adfcca-f5f1-47ba-9ae1-8addaf0e85de,44 58th St,Wheeling,Cook,IL,60090
46b529db-9c4d-4ca7-a31b-bb3e3899def0,9745 W Main St,Randolph,Morris,NJ,7869
d2fc8a95-e42f-45ca-9788-6ac94eb8f94c,84 Bloomfield Ave,Spartanburg,Spartanburg,SC,29301
1b51ddc4-5d2c-4f71-bb39-c38ca0c6cf76,287 Youngstown Warren Rd,Hampstead,Carroll,MD,21074
0f7b3e7f-1d82-4d18-9fec-c939877cb5d3,6 Van Buren St,Mount Vernon,Westchester,NY,10553
788d37a1-2da6-4eca-9d41-3651e6461d24,229 N Forty Driv,New York,New York,NY,10011
320df645-7037-434e-a2d8-e08266d18067,2887 Knowlton St #5435,Berkeley,Alameda,CA,94710
0c02c033-0e7f-4160-a575-ba71f83e8f90,523 Marquette Ave,Concord,Middlesex,MA,1742
6647fe21-d48b-44dc-aa87-99a513c22867,3717 Hamann Industrial Pky,San Francisco,San Francisco,CA,94104
0a38de65-c4c9-4fe4-a33c-a0518456a4ee,3 State Route 35 S,Paramus,Bergen,NJ,7652
62589148-eaf2-410f-8f6e-a8348f24d08a,82 N Highway 67,Oakley,Contra Costa,CA,94561
56007fc7-16df-4b3e-949f-ebcd82b4b397,9 Murfreesboro Rd,Chicago,Cook,IL,60623
761dc9e6-a0ba-4e67-9ec4-860a5772b605,6 S Broadway St,Cedar Grove,Essex,NJ,7009
488ac626-de4b-4a42-a6ad-1fffc29f29fd,6 Harry L Dr #6327,Perrysburg,Wood,OH,43551
a3fab974-610e-4d60-887d-08e95b08bd9d,47939 Porter Ave,Gardena,Los Angeles,CA,90248
fa6b27b2-7107-462a-b927-dbbf29256fa7,9 Wales Rd Ne #914,Homosassa,Citrus,FL,34448
6d9dd486-679b-4dee-a453-546bac380e42,195 13n N,Santa Clara,Santa Clara,CA,95054
02be165a-edfb-40b2-afd1-1753a2a80560,99 Tank Farm Rd,Hazleton,Luzerne,PA,18201
6c59354b-05e9-4dbb-8854-dcd7204a0fa3,4671 Alemany Blvd,Jersey City,Hudson,NJ,7304
953c9fec-131d-47ae-b806-7bafc8b1662b,98 University Dr,San Ramon,Contra Costa,CA,94583
87826dab-a20a-48da-a72d-b92dfa7fe4d3,50 E Wacker Dr,Bridgewater,Somerset,NJ,8807
1a751864-79a7-4162-93fd-31c00900a755,70 Euclid Ave #722,Bohemia,Suffolk,NY,11716
e7269b0d-2850-4872-8a15-736c2e4806a3,326 E Main St #6496,Thousand Oaks,Ventura,CA,91362
e2e06590-30b3-463b-9202-cb54a83aaa30,406 Main St,Somerville,Somerset,NJ,8876
fd993927-ed1e-4b68-95bb-5a94168920a5,3 Elmwood Dr,Beaverton,Washington,OR,97005
5b6f8f6f-b2b6-4fca-9720-52bfb87b6f6f,9 Church St,Salem,Marion,OR,97302
9b62f167-b36a-45b4-b675-8da12f029c77,9939 N 14th St,Riverton,Burlington,NJ,8077
c76c1f62-dd18-415c-915e-cec97c47a9ba,5384 Southwyck Blvd,Douglasville,Douglas,GA,30135
1c460517-168c-410b-8c35-b21fbad1c1f2,97 Airport Loop Dr,Jacksonville,Duval,FL,32216
ad2297a4-d576-4e46-8723-db7ed4b25a1c,37855 Nolan Rd,Bangor,Penobscot,ME,4401
3623aeec-1846-4112-b4f4-d484c64c884b,4252 N Washington Ave #9,Kennedale,Tarrant,TX,76060
2d23c36e-76b7-481e-9950-5d2bed84ff78,42754 S Ash Ave,Buffalo,Erie,NY,14228
403b27e7-2507-470e-bc16-69dc129cfe91,703 Beville Rd,Opa Locka,Miami-Dade,FL,33054
62fd0ad2-f449-4ec1-905e-8e5d41a3908e,5 Harrison Rd,New York,New York,NY,10038
520cbf8b-3d2b-425a-b3cc-b794e4ec9293,73 Southern Blvd,Philadelphia,Philadelphia,PA,19103
53577544-5805-4483-b97c-21500634c08e,189 Village Park Rd,Crestview,Okaloosa,FL,32536
286c3266-5a45-4437-acec-c905f2699d3d,6 Middlegate Rd #106,San Francisco,San Francisco,CA,94107
e196ecc6-d183-40d1-8ee3-6eff3e328034,1128 Delaware St,San Jose,Santa Clara,CA,95132
1cf8222e-0796-4b46-9500-5208118da67c,577 Parade St,South San Francisco,San Mateo,CA,94080
1f0f5153-bf6c-41ef-ba80-396066091681,70 Mechanic St,Northridge,Los Angeles,CA,91325
65e776ea-d656-4248-b785-8fb6c7b48822,4379 Highway 116,Philadelphia,Philadelphia,PA,19103
88a4705b-6d7a-4fba-a679-15012a0b0714,55 Hawthorne Blvd,Lafayette,Lafayette,LA,70506
13aa70ed-18ce-4698-9439-f3874dcb7d8c,7116 Western Ave,Dearborn,Wayne,MI,48126
bbdc6e85-fcb3-4d35-bea9-c2c2b9c92830,2026 N Plankinton Ave #3,Austin,Travis,TX,78754
0202802b-fb0d-40f3-9bd9-5c7754d8511b,99586 Main St,Dallas,Dallas,TX,75207
7b5d2c60-9146-4972-aedf-826a964ff3a9,8739 Hudson St,Vashon,King,WA,98070
3e99966b-968e-4251-a490-9bbb446f3d84,383 Gunderman Rd #197,Coatesville,Chester,PA,19320
96596cf3-b659-4cb4-bf53-111d8f6c7d6f,4441 Point Term Mkt,Philadelphia,Philadelphia,PA,19143
7956ce85-7995-434a-ba97-5dcf0e3aa1b8,2972 Lafayette Ave,Gardena,Los Angeles,CA,90248
7474a209-847a-4a99-9852-57bbc3042cfc,2140 Diamond Blvd,Rohnert Park,Sonoma,CA,94928
119766fd-3330-462e-b504-6c843f0892f1,93 Redmond Rd #492,Orlando,Orange,FL,32803
e52c547f-969e-4c72-990d-15bf480560f1,3989 Portage Tr,Escondido,San Diego,CA,92025
9d89fcbf-5908-4371-9dd5-ff053b4ed6a7,1 Midway Rd,Westborough,Worcester,MA,1581
220ca737-cd99-4420-b46a-afaeebb8428d,77132 Coon Rapids Blvd Nw,Conroe,Montgomery,TX,77301
8e12db28-2efd-4e23-9126-204ffafec00e,755 Harbor Way,Milwaukee,Milwaukee,WI,53226
fadf6015-11bb-4088-9847-2dd2303b0193,87 Sierra Rd,El Monte,Los Angeles,CA,91731
c172960b-d285-421c-b04c-7ee0c160a2be,7667 S Hulen St #42,Yonkers,Westchester,NY,10701
92283690-a6eb-4147-8ed8-3bdc59fb9bed,75684 S Withlapopka Dr #32,Dallas,Dallas,TX,75227
eb8c12c2-81c8-4b80-b0ad-7dc4eb18077c,5 Elmwood Park Blvd,Biloxi,Harrison,MS,39530
2bde3e0b-346d-4b4b-b266-cdab3e08ac30,23 Palo Alto Sq,Miami,Miami-Dade,FL,33134
2f3a5916-6439-49b5-8cf6-a002ea40454b,38062 E Main St,New York,New York,NY,10048
00614ee6-8842-48d3-8a30-0e7cb8ab57b1,3958 S Dupont Hwy #7,Ramsey,Bergen,NJ,7446
fa3f57e3-3c09-4bd6-bb77-349d27d67870,560 Civic Center Dr,Ann Arbor,Washtenaw,MI,48103
38515142-00a3-48fe-9888-a2fbbd0ad975,3270 Dequindre Rd,Deer Park,Suffolk,NY,11729
aa947cf8-392e-48a5-989a-05f8874433b3,1 Garfield Ave #7,Canton,Stark,OH,44707
6ac04764-0812-4870-a7b0-177add6e9677,9122 Carpenter Ave,New Haven,New Haven,CT,6511
d6bccc2f-6085-4895-9d00-21614aef3fe9,48 Lenox St,Fairfax,Fairfax City,VA,22030
520fd3c5-0e2b-4efc-83b4-b22f3ea766a6,5 Little River Tpke,Wilmington,Middlesex,MA,1887
6f29b51d-71b5-4c6e-b188-e55ab56d4bef,3 N Groesbeck Hwy,Toledo,Lucas,OH,43613
9b14a88b-5822-45ae-aa5d-c4e9849f9f1e,37 N Elm St #916,Tacoma,Pierce,WA,98409
daa0754d-828f-4c27-8716-5670b3f09c3e,433 Westminster Blvd #590,Roseville,Placer,CA,95661
72f07583-abad-4b4f-b46d-3e7b110157d6,66697 Park Pl #3224,Riverton,Fremont,WY,82501
19f8a04a-a391-403a-aa31-e0e3f8c729e0,96263 Greenwood Pl,Warren,Knox,ME,4864
d8ffbbcd-1eae-45e5-a874-2f75e4136cfa,8 Mcarthur Ln,Richboro,Bucks,PA,18954
31f25383-4bf8-4c39-a152-8418b14d3510,8 Fair Lawn Ave,Tampa,Hillsborough,FL,33614
a3170acf-e1ea-4149-b10c-d1d4fc001cdd,9 N 14th St,El Cajon,San Diego,CA,92020
a4473993-156f-46a1-97e7-359cc8e23bb5,9 Vanowen St,College Station,Brazos,TX,77840
5bf5e986-8071-4e0f-8896-e0fa2d3888d5,18 Waterloo Geneva Rd,Highland Park,Lake,IL,60035
99ba2f18-63e5-4639-8fe8-df1575165323,506 S Hacienda Dr,Atlantic City,Atlantic,NJ,8401
5ebabfd2-61c2-45b9-863c-5fc305f65a3a,3732 Sherman Ave,Bridgewater,Somerset,NJ,8807
9e84de98-740e-4136-adff-86d53c7b0e0a,25657 Live Oak St,Brooklyn,Kings,NY,11226
ffdf7431-69ae-4866-85c3-3baf821342d3,4923 Carey Ave,Saint Louis,Saint Louis City,MO,63104
b1d5de7d-0c89-476c-b0fa-f9e03b82b7d0,3196 S Rider Trl,Stockton,San Joaquin,CA,95207
3073d041-211a-4e29-bd9b-c5b61de94428,3 Railway Ave #75,Little Falls,Passaic,NJ,7424
231c558f-e128-4b9a-a607-8823b8ff9b73,87393 E Highland Rd,Indianapolis,Marion,IN,46220
9555e268-7fd0-4601-80e7-99fa0c2bebe4,67 E Chestnut Hill Rd,Seattle,King,WA,98133
f48a50c6-dd81-4514-a402-71e774a21c57,33 Lewis Rd #46,Burlington,Alamance,NC,27215
81f1049c-a27a-433c-81fc-61f31f0da052,8100 Jacksonville Rd #7,Hays,Ellis,KS,67601
8f536640-c9fd-43de-9374-7d40411009b9,7 W Wabansia Ave #227,Orlando,Orange,FL,32822
f7b08972-fabe-4d3a-ba80-a0a059975709,25 Minters Chapel Rd #9,Minneapolis,Hennepin,MN,55401
18f7e524-a6c4-449b-a83e-83fc5408146e,6882 Torresdale Ave,Columbia,Richland,SC,29201
1782f637-8fe8-4e4b-a924-806ecccf93a0,985 E 6th Ave,Santa Rosa,Sonoma,CA,95407
9c8ae162-fac0-47e5-b48d-f7c97f6d7f8c,7 West Ave #1,Palatine,Cook,IL,60067
547dab59-8dd1-428a-a881-5a77b50b05e5,26659 N 13th St,Costa Mesa,Orange,CA,92626
759f019c-4b75-4a32-a22e-0edd24f1b318,669 Packerland Dr #1438,Denver,Denver,CO,80212
5a690772-3b3f-4d1c-ac49-971be027f221,759 Eldora St,New Haven,New Haven,CT,6515
0dae2baa-3ae4-497f-bb62-39083e7656ea,5 S Colorado Blvd #449,Bothell,Snohomish,WA,98021
77e401d2-3840-4f95-9dbc-09883fd4febc,944 Gaither Dr,Strongsville,Cuyahoga,OH,44136
9cd08f30-8cf6-451e-adfa-a494df3aef84,66552 Malone Rd,Plaistow,Rockingham,NH,3865
8f2cac9f-1da1-4285-8cae-e29422dd319f,77 Massillon Rd #822,Satellite Beach,Brevard,FL,32937
35835b17-5a44-4793-9189-1227d90b2fb1,25346 New Rd,New York,New York,NY,10016
4c5bed68-decc-485f-9a4b-d2bc679324bb,60 Fillmore Ave,Huntington Beach,Orange,CA,92647
6115a2a0-eeb8-4dff-be16-2560f8c1311f,57 Haven Ave #90,Southfield,Oakland,MI,48075
b519db47-a487-4b92-9059-845d47b183a8,6538 E Pomona St #60,Indianapolis,Marion,IN,46222
3d1c7bee-f6b0-4e50-b233-18700223a63d,6535 Joyce St,Wichita Falls,Wichita,TX,76301
5144f099-24f9-4803-8371-478e1432e413,78112 Morris Ave,North Haven,New Haven,CT,6473
85843149-0e4a-4630-8281-60ac6adaba8f,96950 Hidden Ln,Aberdeen,Harford,MD,21001
57a20375-21d6-43b6-a52b-5c62eec32f76,3718 S Main St,New Orleans,Orleans,LA,70130
c0454452-058c-492f-a050-03208b1e83af,9677 Commerce Dr,Richmond,Richmond City,VA,23219
b89aada9-7c7f-4c0d-a60a-accd85b9efd2,5 Green Pond Rd #4,Southampton,Bucks,PA,18966
465d6829-d1ee-41dc-8346-37dbc184147b,636 Commerce Dr #42,Shakopee,Scott,MN,55379
6593256d-b2ca-4a58-a3ec-7f559c6fcc5f,42744 Hamann Industrial Pky #82,Miami,Miami-Dade,FL,33136
8b4e0c9f-158d-404b-bbde-45bb5c1ccb0d,1950 5th Ave,Milwaukee,Milwaukee,WI,53209
8cb77c37-67a3-4d5e-a074-21e0f6a0714d,61304 N French Rd,Somerset,Somerset,NJ,8873
afb24d2a-760c-491f-b9b2-36fff2656fe1,87 Imperial Ct #79,Fargo,Cass,ND,58102
2ab760db-98a2-4a74-ab3d-d22a4b9112a5,94 W Dodge Rd,Carson City,Carson City,NV,89701
e90ab292-e51c-456a-b7ce-e925b39dfa6f,4 58th St #3519,Scottsdale,Maricopa,AZ,85254
df321a25-c7e7-41a5-aae4-46d0061c02c9,5221 Bear Valley Rd,Nashville,Davidson,TN,37211
94d7da5d-e5a6-4b6c-8dfb-12c93196031d,9648 S Main,Salisbury,Wicomico,MD,21801
eab41d68-99d2-4336-9db1-5462a154d6f0,7 S San Marcos Rd,New York,New York,NY,10004
693cc5ca-7608-44e3-a05f-0355d4a64268,812 S Haven St,Amarillo,Randall,TX,79109
c19c79b6-6f51-4220-9d93-928d5a899cb3,3882 W Congress St #799,Los Angeles,Los Angeles,CA,90016
963771d9-4cef-4a9b-9920-3b469522f8a8,4 E Colonial Dr,La Mesa,San Diego,CA,91942
fa73a14a-8646-47a5-9b9f-778929a787a3,45 2nd Ave #9759,Atlanta,Fulton,GA,30328
ae021ad8-8a98-4358-87bb-3b45d33b535b,57254 Brickell Ave #372,Worcester,Worcester,MA,1602
40d6dd6d-ddb0-43a6-aa1b-0f1a6b098dc7,8977 Connecticut Ave Nw #3,Niles,Berrien,MI,49120
515a0051-2579-497b-bbb7-838228b0e075,9 Waydell St,Fairfield,Essex,NJ,7004
0f0d8817-7fe6-44a3-9896-6c770756e8f5,43 Huey P Long Ave,Lafayette,Lafayette,LA,70508
64afc671-c4ab-4be2-9f97-7373f27ae725,7563 Cornwall Rd #4462,Denver,Lancaster,PA,17517
a16f7248-3482-4006-a9ff-7e53c4766ce2,22 Bridle Ln,Valley Park,Saint Louis,MO,63088
3c1268f3-4c17-4178-a09b-34654b76071b,70099 E North Ave,Arlington,Tarrant,TX,76013
0ca31326-e27a-4436-bdd3-70c5bcd69910,3211 E Northeast Loop,Tampa,Hillsborough,FL,33619
586e615b-f49e-4efe-901a-9bb2734c9830,26 Montgomery St,Atlanta,Fulton,GA,30328
1369420b-3ee9-42cc-878a-16369e74c55c,13252 Lighthouse Ave,Cathedral City,Riverside,CA,92234
ec0f52c0-a986-44c0-9b09-7ce2f11ed202,206 Main St #2804,Lansing,Ingham,MI,48933
692ada47-7949-458c-99e5-b10735a927a8,96541 W Central Blvd,Phoenix,Maricopa,AZ,85034
200586c5-2d1a-4f0f-ad57-ae7245321270,34 Saint George Ave #2,Bangor,Penobscot,ME,4401
15c78959-8460-4567-b2b6-ab0cb77dd900,47857 Coney Island Ave,Clinton,Prince Georges,MD,20735
8e4f5c14-0732-46fc-9da7-345c194056cf,8573 Lincoln Blvd,York,York,PA,17404
9179e8e8-12cc-4059-bf39-a6295a5c9772,596 Santa Maria Ave #7913,Mesquite,Dallas,TX,75150
8242f1b0-637c-4d00-8a70-3a4e5e933e4f,3829 Ventura Blvd,Butte,Silver Bow,MT,59701
791a56b6-caab-4f73-bb68-381ba2ac6224,13 S Hacienda Dr,Livingston,Essex,NJ,7039
4a6c5eba-8fed-4de0-9470-08e37461af68,40 9th Ave Sw #91,Waterford,Oakland,MI,48329
47619110-376b-41b7-8e6a-ef01c4555c96,2845 Boulder Crescent St,Cleveland,Cuyahoga,OH,44103
fb6935b4-838d-4388-9311-c37de1a734a9,33 State St,Abilene,Taylor,TX,79601
bcacc1c1-5a2b-4b02-ba80-c736ccf405e2,2 S 15th St,Fort Worth,Tarrant,TX,76107
9dd9cf24-26b0-411f-9ea1-976f4af66811,4 Kohler Memorial Dr,Brooklyn,Kings,NY,11230
9a12c81a-ad09-4077-b02b-96a396957ced,1 Rancho Del Mar Shopping C,Providence,Providence,RI,2903
3df4d73a-1930-4c4c-bd26-a77daf1605ca,3943 N Highland Ave,Lancaster,Lancaster,PA,17601
edd1e223-7096-4a26-8dfa-599e48a79d03,5 Williams St,Johnston,Providence,RI,2919
f51757bc-bcd7-4419-8660-97cc3d4822d5,60 Old Dover Rd,Hialeah,Miami-Dade,FL,33014
16e5dca3-c462-498e-ac0d-425530baa234,8 Sheridan Rd,Jersey City,Hudson,NJ,7304
1da65ab0-c8a9-4f37-9e07-4d532ed5ad06,85092 Southern Blvd,San Antonio,Bexar,TX,78204
fbca10d4-f83a-4087-988a-cecc59ac4fc1,64 Newman Springs Rd E,Brooklyn,Kings,NY,11219
6b7c37ea-63a3-41fe-8cfc-d6ad14abfba3,48 Stratford Ave,Pomona,Los Angeles,CA,91768
1d70dfb5-6c6a-4520-a799-24d12d4af6a4,80 Pittsford Victor Rd #9,Cleveland,Cuyahoga,OH,44103
8e34eb54-398f-41e4-a0e0-b8d55941fc19,87163 N Main Ave,New York,New York,NY,10013
bba66694-15ed-407f-a1d2-6190c56b43d9,393 Lafayette Ave,Richmond,Richmond City,VA,23219
a1435682-7947-45d9-8caf-de0016696975,99 5th Ave #33,Trion,Chattooga,GA,30753
10ede64e-6368-487b-9836-b7f915fd7c51,49 N Mays St,Broussard,Lafayette,LA,70518
60077096-f61d-422f-af17-16f1b7983a05,993 Washington Ave,Nutley,Essex,NJ,7110
b0a76c03-0d73-4e4c-b0c0-40a793625c45,88 15th Ave Ne,Vestal,Broome,NY,13850
6c847924-2ddb-447f-909a-09dd71cd712f,3381 E 40th Ave,Passaic,Passaic,NJ,7055
26cb0b00-f164-490d-a125-8d8c74e7bda0,201 Ridgewood Rd,Moscow,Latah,ID,83843
fd51fdb2-82c9-4bbd-945e-536c6f4b12a8,39 Moccasin Dr,San Francisco,San Francisco,CA,94104
3e1bb49f-0004-47a6-9223-96f501c8bbf5,4 Carroll St,North Attleboro,Bristol,MA,2760
4673a705-6df0-4f7f-b789-fe2e589b65cb,9581 E Arapahoe Rd,Rochester,Oakland,MI,48307
c6727bb8-6ba3-4c50-8c42-0f5902427265,33 N Michigan Ave,Green Bay,Brown,WI,54301
d0a256da-4df0-4f10-a33a-e870692ab629,2 S Biscayne Blvd,Baltimore,Baltimore City,MD,21230
0d57cb3a-c736-4b62-a995-31446b9778bc,8 Us Highway 22,Colorado Springs,El Paso,CO,80937
f92b1614-1d20-4056-9c48-64fa653dcafa,7422 Martin Ave #8,Toledo,Lucas,OH,43607
19054f0d-873d-4b3e-8898-52c09107121d,94 Chase Rd,Hyattsville,Prince Georges,MD,20785
1c4b781e-3c7d-4df4-92af-eef2f2aace7e,8139 I Hwy 10 #92,New Bedford,Bristol,MA,2745
77f89042-2c87-4108-8d82-cf36c97933ff,5 Cabot Rd,Mc Lean,Fairfax,VA,22102
fbd688c0-35b8-4f2f-8efc-144fdb33925d,3387 Ryan Dr,Hanover,Anne Arundel,MD,21076
b0c79662-622b-4afe-a946-9763a478138a,3125 Packer Ave #9851,Austin,Travis,TX,78753
6745d081-cba7-45c4-847e-f804a21273c3,347 Chestnut St,Peoria,Maricopa,AZ,85381
00b04c9b-b8fd-4a0e-89e7-7ada002ce9a3,8116 Mount Vernon Ave,Bucyrus,Crawford,OH,44820
c074da89-4ca5-45b0-8e19-91a22ecc0ad2,8772 Old County Rd #5410,Kent,King,WA,98032
acbc1a45-4269-421d-85fb-7486d1ee9b2f,868 State St #38,Cincinnati,Hamilton,OH,45251
bc3fb088-4b2b-46a6-882d-1445bc595189,772 W River Dr,Bloomington,Monroe,IN,47404
dc49baa9-c3e6-4424-b433-e4a6e8b3e7a0,73 W Barstow Ave,Arlington Heights,Cook,IL,60004
7a853929-215e-4cf3-bb5e-3c5bd8d45d91,61047 Mayfield Ave,Brooklyn,Kings,NY,11223
d4993c84-6e70-44cb-b18a-c5b73b861cac,2139 Santa Rosa Ave,Orlando,Orange,FL,32801
a3fa38e1-5c77-4498-98de-245411eec4f6,598 43rd St,Beverly Hills,Los Angeles,CA,90210
7cc8f6e0-3725-4ff6-8365-e1b63df3321c,70295 Pioneer Ct,Brandon,Hillsborough,FL,33511
aa701434-4fa9-4274-aeb8-b3b16ab7e397,92899 Kalakaua Ave,El Paso,El Paso,TX,79925
68cbd1a3-8a36-4602-9842-9e074d34d05b,395 S 6th St #2,El Cajon,San Diego,CA,92020
fefef804-2834-4260-b852-017d9c5872cf,9506 Edgemore Ave,Bladensburg,Prince Georges,MD,20710
ea0c5a43-d3f8-44c0-af72-6c00c0011560,72119 S Walker Ave #63,Anaheim,Orange,CA,92801
d70c71cf-d75f-4432-94ff-4080aad089ed,369 Latham St #500,Saint Louis,Saint Louis City,MO,63102
da3a22f1-c299-4289-96fc-8ac485248f17,3158 Runamuck Pl,Round Rock,Williamson,TX,78664
2b0c052e-ba2f-4ccc-8740-1a0f71a78682,9 Plainsboro Rd #598,Greensboro,Guilford,NC,27409
a22c3088-de3a-437e-8f17-439afa291230,8728 S Broad St,Coram,Suffolk,NY,11727
192302eb-693e-4158-9cc6-8a92c062cd36,2215 Prosperity Dr,Lyndhurst,Bergen,NJ,7071
fd08a6da-094a-4761-a58b-f43b6a0d5bc8,1 S Pine St,Memphis,Shelby,TN,38112
fa101e0b-d31d-4bfd-8044-c0059d4a2db5,187 Market St,Atlanta,Fulton,GA,30342
1bc5dadd-b3d1-4cfd-94d4-89e94fa9b87e,94290 S Buchanan St,Pacifica,San Mateo,CA,94044
23282578-afb4-48d9-a1a7-7908f9bfd533,7061 N 2nd St,Burnsville,Dakota,MN,55337
fcb96274-20bd-49d1-9260-bce2d616bfa0,10759 Main St,Scottsdale,Maricopa,AZ,85260
ff501966-0871-4797-b085-f3d58b05b07e,97 E 3rd St #9,Long Island City,Queens,NY,11101
5d3ab715-ff3d-4441-9bcf-aa4debc135f6,82 Winsor St #54,Atlanta,Dekalb,GA,30340
5d5bcd67-5b57-434e-af31-f9a30af44478,41 Steel Ct,Northfield,Rice,MN,55057
0588c0bc-4676-4969-a6cd-dc46fb6ca6ff,49440 Dearborn St,Norwalk,Fairfield,CT,6854
8876026a-02e5-4a99-84a7-bfde07b6a26f,7 S Beverly Dr,Fort Wayne,Allen,IN,46802
e67283c5-3beb-4b8d-bcdd-a2ba1d3e4adb,919 Wall Blvd,Meridian,Lauderdale,MS,39307
1f29fe64-a077-412e-bf88-c32905f1b197,89 20th St E #779,Sterling Heights,Macomb,MI,48310
8a8d8953-5ac3-4b6a-8569-4d4459ed74d3,721 Interstate 45 S,Colorado Springs,El Paso,CO,80919
67eb5014-cda3-4653-a61f-70eab2789ceb,3 Lawton St,New York,New York,NY,10013
46b10d31-9fe8-4d66-a74f-482d1e4df61e,38 Pleasant Hill Rd,Hayward,Alameda,CA,94545
f7657344-e2a7-4a7d-ab90-d8c5b648d199,45 E Acacia Ct,Chicago,Cook,IL,60624
cdce2b67-4725-42db-a839-ddf6c0a72091,63728 Poway Rd #1,Scranton,Lackawanna,PA,18509
d1bbfbeb-b0c0-4f76-9d95-00ac696310a6,77 222 Dr,Oroville,Butte,CA,95965
07578e3b-198d-4e56-93a2-be33bea84d37,53 W Carey St,Port Jervis,Orange,NY,12771
dc8c2e96-f14b-475d-99bf-e35bb5aae0e9,617 Nw 36th Ave,Brook Park,Cuyahoga,OH,44142
4dd9af47-765a-4221-849d-1a7428b74ffc,539 Coldwater Canyon Ave,Bloomfield,Essex,NJ,7003
2c53ed08-2d42-497b-a439-2c1ad1a45e34,735 Crawford Dr,Anchorage,Anchorage,AK,99501
9a6432bc-8246-4f3a-9bf7-27ba229417c5,910 Rahway Ave,Philadelphia,Philadelphia,PA,19102
3de38d35-e533-46f0-92b2-749cff6d3b3a,7 Tarrytown Rd,Cincinnati,Hamilton,OH,45217
7fb3cb86-8a32-490b-af2e-3c81f071d5f6,35433 Blake St #588,Gardena,Los Angeles,CA,90248
68b45dfd-8850-4cc6-ac56-7d1f48bfac4d,29 Cherry St #7073,Des Moines,Polk,IA,50315
b1529c22-6910-4735-9203-b3dc677bd2a6,810 N La Brea Ave,King of Prussia,Montgomery,PA,19406
727f2e10-0021-45c0-80ff-606d2672f15c,987 Main St,Raleigh,Wake,NC,27601
7cbfc312-916c-4b32-8b1b-72b454eebd57,36 Enterprise St Se,Richland,Benton,WA,99352
40d76ad5-ab1a-4d20-8a30-38d921989198,8429 Miller Rd,Pelham,Westchester,NY,10803
1dd6c722-1726-4f45-b9dd-27602f7a38f7,5 W 7th St,Parkville,Baltimore,MD,21234
42b792fd-a5a0-4ce4-a1e4-a1e0e755ca7a,2 Flynn Rd,Hicksville,Nassau,NY,11801
396c427f-ddc2-4d08-ad54-03cd40fc1d6a,2094 Ne 36th Ave,Worcester,Worcester,MA,1603
d8a255c4-d885-42bb-8c87-8c346e2ef3e0,649 Tulane Ave,Tulsa,Tulsa,OK,74105
f80fff03-54d4-46fc-803f-d3172ab3205f,2094 Montour Blvd,Muskegon,Muskegon,MI,49442
93068902-f21b-4fe1-90a1-a85113d3f65e,393 Hammond Dr,Lafayette,Lafayette,LA,70506
b7dc8054-263f-496f-a0d0-a4f9790f41c3,8590 Lake Lizzie Dr,Bowling Green,Wood,OH,43402
957060f8-e901-4cef-928c-46815795c017,87895 Concord Rd,La Mesa,San Diego,CA,91942
ad6b45fd-7935-4866-8c5a-7afa08c109a5,46314 Route 130,Bridgeport,Fairfield,CT,6610
f49e56cd-ee8a-4409-b469-3c118dfc90a0,4 Cowesett Ave,Kearny,Hudson,NJ,7032
203d2cad-2494-4b7b-ab50-c342057438d7,95 Main Ave #2,Barberton,Summit,OH,44203
01e490fa-28f6-4a70-a6f0-c8b9716d4931,28 S 7th St #2824,Englewood,Bergen,NJ,7631
54c40079-4ff5-435c-817a-759f93815419,79 S Howell Ave,Grand Rapids,Kent,MI,49546
8f7ae606-89d5-4b70-aba0-23e89c665f7f,36 Lancaster Dr Se,Pearl,Rankin,MS,39208
ec2351c0-4640-44a0-abea-27cfade59d7b,2759 Livingston Ave,Memphis,Shelby,TN,38118
11ce0afd-00a6-476e-b131-c7fbb6b6441d,17 Jersey Ave,Englewood,Arapahoe,CO,80110
a80bcd2c-bb36-4bbf-8380-91cf95ecba64,2 W Grand Ave,Memphis,Shelby,TN,38112
4b0bbca3-caff-4156-8c89-5d83c6e63b16,18 Coronado Ave #563,Pasadena,Los Angeles,CA,91106
e82529dc-2e0a-46ca-9438-f71533bebe9b,72 Beechwood Ter,Chicago,Cook,IL,60657
3e33841e-791b-438e-b84c-cb11703ec50f,92 Broadway,Astoria,Queens,NY,11103
ad462ae2-c7d7-451b-97a2-15521023916c,39 Franklin Ave,Richland,Benton,WA,99352
e1a1a5e2-fe3c-4ee0-9711-8ac77f80da3c,4 Iwaena St,Baltimore,Baltimore City,MD,21202
a2821f6b-9cd2-4c98-8eb7-ad57f35f56ee,32820 Corkwood Rd,Newark,Essex,NJ,7104
b1b87779-996f-40cf-b685-67b4af94bea2,34 Raritan Center Pky,Bellflower,Los Angeles,CA,90706
5d110166-686c-4ae4-8915-9fdf6f23b248,6201 S Nevada Ave,Toms River,Ocean,NJ,8755
73c81b76-91d4-4935-894c-53b4edda0864,78 Maryland Dr #146,Denville,Morris,NJ,7834
ad433b02-352f-44d4-9c45-f4bcf7f17326,76598 Rd  I 95 #1,Denver,Denver,CO,80216
7cdfcfe9-fbb9-4e5a-ade7-d89cfccdd583,1610 14th St Nw,Newport News,Newport News City,VA,23608
10924d02-2da5-4797-a194-1f85dda5e029,86350 Roszel Rd,Phoenix,Maricopa,AZ,85012
78b78508-257b-4195-ac23-cbdb28bc16fc,1644 Clove Rd,Miami,Miami-Dade,FL,33155
c4f49129-e723-48b9-97cb-f064502ff18b,9 W Central Ave,Phoenix,Maricopa,AZ,85013
24fced80-8fc0-4388-a8ab-22cb7d93c9af,27846 Lafayette Ave,Oak Hill,Volusia,FL,32759
a38a63a7-296c-4c2e-a36b-0284133ccd68,10276 Brooks St,San Francisco,San Francisco,CA,94105
e081514d-805e-4660-88ca-95b4bf776eb6,1 Century Park E,San Diego,San Diego,CA,92110
e78cab8c-a44a-4f0d-895a-98dc8c5feb57,9 State Highway 57 #22,Jersey City,Hudson,NJ,7306
879632c1-8f04-4511-a46f-089fe2d0ea27,4 S Washington Ave,San Bernardino,San Bernardino,CA,92410
e872f81f-2238-466f-a102-4bbe657b34b2,25 Se 176th Pl,Cambridge,Middlesex,MA,2138
72d68231-8bbd-4ca0-8564-6a1056426220,105 Richmond Valley Rd,Escondido,San Diego,CA,92025
c72f579b-f623-4c75-b5a3-b935c1918ada,22 Spruce St #595,Gardena,Los Angeles,CA,90248
ecca8bb0-5e97-4007-afc5-16d63bddc8f8,2 W Beverly Blvd,Harrisburg,Dauphin,PA,17110
2a5401ae-3a12-4664-b29c-c8c776410ffc,72 Southern Blvd,Mesa,Maricopa,AZ,85204
2905e8b9-b768-4ec4-83db-f029eff5119d,1 Washington St,Lake Worth,Palm Beach,FL,33461
14e7c3a8-9609-4785-b982-8202177a129a,90177 N 55th Ave,Nashville,Davidson,TN,37211
efbd8051-f81b-46c0-b231-309abe8474d2,9 Tower Ave,Burlington,Boone,KY,41005
4532d625-1018-4cde-85e2-9db181b8d218,278 Bayview Ave,Milan,Monroe,MI,48160
14848f3b-61d9-467e-8733-2235d76967e3,80312 W 32nd St,Conroe,Montgomery,TX,77301
52b12bdd-4812-4a75-9016-796b5d0ec7e6,82 Us Highway 46,Clifton,Passaic,NJ,7011
f99a4528-26b2-4dbc-ac3d-ce37aa5cdc6c,4 Stovall St #72,Union City,Hudson,NJ,7087
cf3d8f5e-fc8c-437f-8efe-f0ad7ba29574,19 Amboy Ave,Miami,Miami-Dade,FL,33142
4fee818e-57f6-45cd-b528-0a60078480e4,63 Smith Ln #8343,Moss,Clay,TN,38575
9cfe0fb7-770c-4caa-bb54-128a80f937dc,11360 S Halsted St,Santa Ana,Orange,CA,92705
1c978d3b-8e60-4059-9623-53d67019a983,26849 Jefferson Hwy,Rolling Meadows,Cook,IL,60008
5820a39d-6879-4879-b72d-d821e4c0add0,2500 Pringle Rd Se #508,Hatfield,Montgomery,PA,19440
5e4420ac-03a0-4720-9a33-47c017fabce8,65 Mountain View Dr,Whippany,Morris,NJ,7981
0ccfae64-eebd-466a-9ac9-bf3eac63ba86,1 N San Saba,Erie,Erie,PA,16501
607a636c-b5ed-4625-af1f-2d0c33600b4b,51120 State Route 18,Salt Lake City,Salt Lake,UT,84115
31a6a2b7-9df4-468d-993e-b6fcaf7f0ee6,1482 College Ave,Fayetteville,Cumberland,NC,28301
4f7266af-5146-4f73-900c-20c1b97935f2,4119 Metropolitan Dr,Los Angeles,Los Angeles,CA,90021
143855b0-5bec-474a-ab1b-a42b44ea7fd8,2167 Sierra Rd,East Lansing,Ingham,MI,48823
97237b32-78ae-47b6-8257-88b2b2d86d99,6 Sunrise Ave,Utica,Oneida,NY,13501
0907136b-0ce8-4df1-92db-ec529bb82fa7,55713 Lake City Hwy,South Bend,St Joseph,IN,46601
d82ceee5-6b17-4303-a35e-7bca603685b4,75698 N Fiesta Blvd,Orlando,Orange,FL,32806
3aebfc6b-7aac-4be2-b509-33c3b0739113,88 Sw 28th Ter,Harrison,Hudson,NJ,7029
b7b8abe7-79a0-4030-ae99-150c673eece1,7 Flowers Rd #403,Trenton,Mercer,NJ,8611
4392f251-21e5-4e66-9f2f-cde724d93a7f,4 Nw 12th St #3849,Madison,Dane,WI,53717
d11e7960-33a1-463b-99d6-b59935f038c7,2 A Kelley Dr,Katonah,Westchester,NY,10536
30ed0639-db61-489a-b012-3db10287fedf,88827 Frankford Ave,Greensboro,Guilford,NC,27401
fb98548a-6750-4a83-8734-f11d16309cc7,2 W Scyene Rd #3,Baltimore,Baltimore City,MD,21217
b2a3794d-0fc6-4445-a319-cbb550eb8fd1,62260 Park Stre,Monroe Township,Middlesex,NJ,8831
55ad5265-89d5-4df5-a525-9d1e99ae4051,3424 29th St Se,Kerrville,Kerr,TX,78028
72eaf0e7-10d5-408a-95d2-f27e591e7218,35 E Main St #43,Elk Grove Village,Cook,IL,60007
8a53c120-b37b-46e9-ab2a-14bbee6b6de3,7163 W Clark Rd,Freehold,Monmouth,NJ,7728
cb77a8c7-0ac5-4683-87e9-6f4478324629,21575 S Apple Creek Rd,Omaha,Douglas,NE,68124
c2868a56-8e16-4c38-b1ce-8cf825f07f5b,747 Leonis Blvd,Annandale,Fairfax,VA,22003
2ce81d9e-2bc4-4a7e-ba4a-2c0e75c8bb9c,13 Gunnison St,Plano,Collin,TX,75075
8eec39ed-65a3-4a8b-bd12-67de1a496191,18 3rd Ave,New York,New York,NY,10016
e94478b8-114a-4fe9-a241-41ee7e1e2799,62 W Austin St,Syosset,Nassau,NY,11791
aef9bd3a-735b-4f1c-a932-934e8aeecbdf,177 S Rider Trl #52,Crystal River,Citrus,FL,34429
54d495f0-2026-4a69-85f6-75e4ef97965c,2 W Mount Royal Ave,Fortville,Hancock,IN,46040
65b8aa8f-a4dc-41e4-922f-1ff97e09de8f,1953 Telegraph Rd,Saint Joseph,Buchanan,MO,64504
b16ddd63-4a59-48e1-a31a-5cb6758fb184,63517 Dupont St,Jackson,Hinds,MS,39211
1800eb0f-148a-40b9-8e5e-4af171ac65da,5 E Truman Rd,Abilene,Taylor,TX,79602
fc3417b5-aca2-4330-9e23-5b2f255a45b3,251 Park Ave #979,Saratoga,Santa Clara,CA,95070
bac7a4ba-8a13-461c-bfcd-98f738f91973,43496 Commercial Dr #29,Cherry Hill,Camden,NJ,8003
1a0c6937-2de5-4bf7-98e7-fb4e68cde6e0,2184 Worth St,Hayward,Alameda,CA,94545
a1da3e64-58e9-4c70-8bbd-9dfc8128b75b,50126 N Plankinton Ave,Longwood,Seminole,FL,32750
9f4e5ea3-9d71-49ca-b683-66734bc69a69,38773 Gravois Ave,Cheyenne,Laramie,WY,82001
f9eadc15-2853-4ddb-9704-bf51fb679214,16452 Greenwich St,Garden City,Nassau,NY,11530
3b35d4fa-e22e-44f7-b121-5e8d0f153746,40 Cambridge Ave,Madison,Dane,WI,53715
0be9e07e-29fb-4bae-a4b4-0f6aaf616ea7,20113 4th Ave E,Kearny,Hudson,NJ,7032
c08bf3ec-b0d8-491a-80da-169cbf5db6fc,6 Ridgewood Center Dr,Old Forge,Lackawanna,PA,18518
c5dd1901-495e-4f9c-82bf-044289a6f8cc,469 Outwater Ln,San Diego,San Diego,CA,92126
294cb35a-2e58-4545-a00e-ba59fd9d2ca2,62 Monroe St,Thousand Palms,Riverside,CA,92276
4a7c4d2f-f708-4b74-8303-011f97abade3,3338 A Lockport Pl #6,Margate City,Atlantic,NJ,8402
9df72960-6b2d-48d9-91b5-bcefec861b8c,9 Hwy,Providence,Providence,RI,2906
f8c8389e-dc8f-4688-a77d-8d0cd202ca5b,8284 Hart St,Abilene,Dickinson,KS,67410
afbb83cb-ae47-4308-b9e0-30728b7477b3,5 Washington St #1,Roseville,Placer,CA,95678
6d806fa4-321d-4d02-95d4-65e8ac17186e,8 S Haven St,Daytona Beach,Volusia,FL,32114
26cd7f21-836e-4243-9acd-42e9f96b7c90,9 Front St,Washington,District of Columbia,DC,20001
d086e063-bf97-4903-b258-353e247d67a6,1933 Packer Ave #2,Novato,Marin,CA,94945
a36ea4e4-5f4c-43e8-b1f4-74508f74f095,67 Rv Cent,Boise,Ada,ID,83709
57a3c57d-f9f6-4cec-a977-e4ec6ad9b29b,2 Sw Nyberg Rd,Elkhart,Elkhart,IN,46514
787e9600-f816-4ef9-b978-830cb0ba9e74,89992 E 15th St,Alliance,Box Butte,NE,69301
c932d846-dc91-425b-89e4-c8a23e935cab,61556 W 20th Ave,Seattle,King,WA,98104
0f7f18b5-b136-4111-a878-445619d51ec6,63 E Aurora Dr,Orlando,Orange,FL,32804
